STARLINK-1724           
1 46375U 20062BC  25217.38350997  .00028998  00000+0  14123-2 0  9994
2 46375  53.0525 219.9797 0004352  21.6185 338.4992 15.18147799272379
STARLINK-1742           
1 46376U 20062BD  25217.35396027  .00045623  00000+0  18068-2 0  9992
2 46376  53.0437 209.7729 0008460  81.5109 278.6847 15.24972581272511
STARLINK-1769           
1 46382U 20062BK  25217.33617569  .00001543  00000+0  12247-3 0  9991
2 46382  53.0538 222.8697 0001167  81.9698 278.1423 15.06389340272334
STARLINK-1770           
1 46383U 20062BL  25217.40976567  .00046443  00000+0  17387-2 0  9993
2 46383  53.0542 262.8666 0003858 349.8674  10.2245 15.26859310271774
STARLINK-1771           
1 46384U 20062BM  25217.45918156  .00001797  00000+0  13950-3 0  9995
2 46384  53.0539 267.3195 0001200  88.0613 272.0513 15.06401344271710
STARLINK-1648           
1 46533U 20070B   25217.60293657  .00002184  00000+0  16548-3 0  9996
2 46533  53.0528  66.6700 0001913  97.0544 263.0662 15.06403002266936
STARLINK-1663           
1 46535U 20070D   25217.57346605  .00001413  00000+0  11375-3 0  9993
2 46535  53.0557  66.8013 0001250 100.2582 259.8548 15.06394930266948
STARLINK-1672           
1 46537U 20070F   25217.00212150  .00002270  00000+0  17123-3 0  9999
2 46537  53.0550  69.3679 0001236  87.2310 272.8820 15.06403035266840
STARLINK-1678           
1 46538U 20070G   25217.30979765  .00037992  00000+0  12531-2 0  9991
2 46538  53.0565  65.8691 0000713 141.5179 218.5872 15.31093912266917
STARLINK-1687           
1 46541U 20070K   25217.55685844 -.00001126  00000+0 -56666-4 0  9995
2 46541  53.0578  46.8759 0001439  90.9726 269.1428 15.06408181267202
STARLINK-1692           
1 46542U 20070L   25217.58335648  .00088309  00000+0  21058-2 0  9994
2 46542  53.0399  40.2220 0006266 225.5033 123.5142 15.40822314  5881
STARLINK-1693           
1 46543U 20070M   25217.66667824  .00722838  25073-3  13408-2 0  9991
2 46543  53.0379 344.6137 0013555 293.7716 134.3402 16.00376470268112
STARLINK-1700           
1 46549U 20070T   25217.53621549  .00080746  00000+0  23680-2 0  9994
2 46549  53.0473  44.1537 0003376 177.3577 182.7443 15.34491929267249
STARLINK-1664           
1 46553U 20070X   25217.47669788  .00001634  00000+0  12858-3 0  9994
2 46553  53.0547  37.2454 0001483  93.1620 266.9538 15.06399264267336
STARLINK-1676           
1 46556U 20070AA  25217.32280585  .00003265  00000+0  23795-3 0  9999
2 46556  53.0550  67.9326 0001310  84.1404 275.9734 15.06405872266891
STARLINK-1679           
1 46557U 20070AB  25217.57196416  .00000947  00000+0  82440-4 0  9993
2 46557  53.0564  51.1817 0001371  92.2288 267.8858 15.06401918267158
STARLINK-1680           
1 46558U 20070AC  25217.57298311  .00000870  00000+0  77256-4 0  9995
2 46558  53.0544  51.8065 0001433  92.9541 267.1612 15.06406191267112
