[{"OBJECT_NAME":"STARLINK-1724","OBJECT_ID":"2020-062BC","EPOCH":"2025-08-05T09:12:15.261408","MEAN_MOTION":15.18147799,"ECCENTRICITY":0.0004352,"INCLINATION":53.0525,"RA_OF_ASC_NODE":219.9797,"ARG_OF_PERICENTER":21.6185,"MEAN_ANOMALY":338.4992,"EPHEMERIS_TYPE":0,"CLASSIFICATION_TYPE":"U","NORAD_CAT_ID":46375,"ELEMENT_SET_NO":999,"REV_AT_EPOCH":27237,"BSTAR":0.0014123,"MEAN_MOTION_DOT":0.00028998,"MEAN_MOTION_DDOT":0},{"OBJECT_NAME":"STARLINK-1742","OBJECT_ID":"2020-062BD","EPOCH":"2025-08-05T08:29:42.167328","MEAN_MOTION":15.24972581,"ECCENTRICITY":0.000846,"INCLINATION":53.0437,"RA_OF_ASC_NODE":209.7729,"ARG_OF_PERICENTER":81.5109,"MEAN_ANOMALY":278.6847,"EPHEMERIS_TYPE":0,"CLASSIFICATION_TYPE":"U","NORAD_CAT_ID":46376,"ELEMENT_SET_NO":999,"REV_AT_EPOCH":27251,"BSTAR":0.0018068,"MEAN_MOTION_DOT":0.00045623,"MEAN_MOTION_DDOT":0},{"OBJECT_NAME":"STARLINK-1769","OBJECT_ID":"2020-062BK","EPOCH":"2025-08-05T08:04:05.579616","MEAN_MOTION":15.0638934,"ECCENTRICITY":0.0001167,"INCLINATION":53.0538,"RA_OF_ASC_NODE":222.8697,"ARG_OF_PERICENTER":81.9698,"MEAN_ANOMALY":278.1423,"EPHEMERIS_TYPE":0,"CLASSIFICATION_TYPE":"U","NORAD_CAT_ID":46382,"ELEMENT_SET_NO":999,"REV_AT_EPOCH":27233,"BSTAR":0.00012247,"MEAN_MOTION_DOT":1.543e-5,"MEAN_MOTION_DDOT":0},{"OBJECT_NAME":"STARLINK-1770","OBJECT_ID":"2020-062BL","EPOCH":"2025-08-05T09:50:03.753888","MEAN_MOTION":15.2685931,"ECCENTRICITY":0.0003858,"INCLINATION":53.0542,"RA_OF_ASC_NODE":262.8666,"ARG_OF_PERICENTER":349.8674,"MEAN_ANOMALY":10.2245,"EPHEMERIS_TYPE":0,"CLASSIFICATION_TYPE":"U","NORAD_CAT_ID":46383,"ELEMENT_SET_NO":999,"REV_AT_EPOCH":27177,"BSTAR":0.0017387,"MEAN_MOTION_DOT":0.00046443,"MEAN_MOTION_DDOT":0},{"OBJECT_NAME":"STARLINK-1771","OBJECT_ID":"2020-062BM","EPOCH":"2025-08-05T11:01:13.286784","MEAN_MOTION":15.06401344,"ECCENTRICITY":0.00012,"INCLINATION":53.0539,"RA_OF_ASC_NODE":267.3195,"ARG_OF_PERICENTER":88.0613,"MEAN_ANOMALY":272.0513,"EPHEMERIS_TYPE":0,"CLASSIFICATION_TYPE":"U","NORAD_CAT_ID":46384,"ELEMENT_SET_NO":999,"REV_AT_EPOCH":27171,"BSTAR":0.0001395,"MEAN_MOTION_DOT":1.797e-5,"MEAN_MOTION_DDOT":0},{"OBJECT_NAME":"STARLINK-1648","OBJECT_ID":"2020-070B","EPOCH":"2025-08-05T14:28:13.719648","MEAN_MOTION":15.06403002,"ECCENTRICITY":0.0001913,"INCLINATION":53.0528,"RA_OF_ASC_NODE":66.67,"ARG_OF_PERICENTER":97.0544,"MEAN_ANOMALY":263.0662,"EPHEMERIS_TYPE":0,"CLASSIFICATION_TYPE":"U","NORAD_CAT_ID":46533,"ELEMENT_SET_NO":999,"REV_AT_EPOCH":26693,"BSTAR":0.00016548,"MEAN_MOTION_DOT":2.184e-5,"MEAN_MOTION_DDOT":0},{"OBJECT_NAME":"STARLINK-1663","OBJECT_ID":"2020-070D","EPOCH":"2025-08-05T13:45:47.466720","MEAN_MOTION":15.0639493,"ECCENTRICITY":0.000125,"INCLINATION":53.0557,"RA_OF_ASC_NODE":66.8013,"ARG_OF_PERICENTER":100.2582,"MEAN_ANOMALY":259.8548,"EPHEMERIS_TYPE":0,"CLASSIFICATION_TYPE":"U","NORAD_CAT_ID":46535,"ELEMENT_SET_NO":999,"REV_AT_EPOCH":26694,"BSTAR":0.00011375,"MEAN_MOTION_DOT":1.413e-5,"MEAN_MOTION_DDOT":0},{"OBJECT_NAME":"STARLINK-1672","OBJECT_ID":"2020-070F","EPOCH":"2025-08-05T00:03:03.297600","MEAN_MOTION":15.06403035,"ECCENTRICITY":0.0001236,"INCLINATION":53.055,"RA_OF_ASC_NODE":69.3679,"ARG_OF_PERICENTER":87.231,"MEAN_ANOMALY":272.882,"EPHEMERIS_TYPE":0,"CLASSIFICATION_TYPE":"U","NORAD_CAT_ID":46537,"ELEMENT_SET_NO":999,"REV_AT_EPOCH":26684,"BSTAR":0.00017123,"MEAN_MOTION_DOT":2.27e-5,"MEAN_MOTION_DDOT":0},{"OBJECT_NAME":"STARLINK-1678","OBJECT_ID":"2020-070G","EPOCH":"2025-08-05T07:26:06.516960","MEAN_MOTION":15.31093912,"ECCENTRICITY":7.13e-5,"INCLINATION":53.0565,"RA_OF_ASC_NODE":65.8691,"ARG_OF_PERICENTER":141.5179,"MEAN_ANOMALY":218.5872,"EPHEMERIS_TYPE":0,"CLASSIFICATION_TYPE":"U","NORAD_CAT_ID":46538,"ELEMENT_SET_NO":999,"REV_AT_EPOCH":26691,"BSTAR":0.0012531,"MEAN_MOTION_DOT":0.00037992,"MEAN_MOTION_DDOT":0},{"OBJECT_NAME":"STARLINK-1687","OBJECT_ID":"2020-070K","EPOCH":"2025-08-05T13:21:52.569216","MEAN_MOTION":15.06408181,"ECCENTRICITY":0.0001439,"INCLINATION":53.0578,"RA_OF_ASC_NODE":46.8759,"ARG_OF_PERICENTER":90.9726,"MEAN_ANOMALY":269.1428,"EPHEMERIS_TYPE":0,"CLASSIFICATION_TYPE":"U","NORAD_CAT_ID":46541,"ELEMENT_SET_NO":999,"REV_AT_EPOCH":26720,"BSTAR":-5.6666e-5,"MEAN_MOTION_DOT":-1.126e-5,"MEAN_MOTION_DDOT":0},{"OBJECT_NAME":"STARLINK-1692","OBJECT_ID":"2020-070L","EPOCH":"2025-08-05T14:00:01.999872","MEAN_MOTION":15.40822314,"ECCENTRICITY":0.0006266,"INCLINATION":53.0399,"RA_OF_ASC_NODE":40.222,"ARG_OF_PERICENTER":225.5033,"MEAN_ANOMALY":123.5142,"EPHEMERIS_TYPE":0,"CLASSIFICATION_TYPE":"U","NORAD_CAT_ID":46542,"ELEMENT_SET_NO":999,"REV_AT_EPOCH":588,"BSTAR":0.0021058,"MEAN_MOTION_DOT":0.00088309,"MEAN_MOTION_DDOT":0},{"OBJECT_NAME":"STARLINK-1693","OBJECT_ID":"2020-070M","EPOCH":"2025-08-05T16:00:00.999936","MEAN_MOTION":16.0037647,"ECCENTRICITY":0.0013555,"INCLINATION":53.0379,"RA_OF_ASC_NODE":344.6137,"ARG_OF_PERICENTER":293.7716,"MEAN_ANOMALY":134.3402,"EPHEMERIS_TYPE":0,"CLASSIFICATION_TYPE":"U","NORAD_CAT_ID":46543,"ELEMENT_SET_NO":999,"REV_AT_EPOCH":26811,"BSTAR":0.0013408,"MEAN_MOTION_DOT":0.00722838,"MEAN_MOTION_DDOT":0.00025073},{"OBJECT_NAME":"STARLINK-1700","OBJECT_ID":"2020-070T","EPOCH":"2025-08-05T12:52:09.018336","MEAN_MOTION":15.34491929,"ECCENTRICITY":0.0003376,"INCLINATION":53.0473,"RA_OF_ASC_NODE":44.1537,"ARG_OF_PERICENTER":177.3577,"MEAN_ANOMALY":182.7443,"EPHEMERIS_TYPE":0,"CLASSIFICATION_TYPE":"U","NORAD_CAT_ID":46549,"ELEMENT_SET_NO":999,"REV_AT_EPOCH":26724,"BSTAR":0.002368,"MEAN_MOTION_DOT":0.00080746,"MEAN_MOTION_DDOT":0},{"OBJECT_NAME":"STARLINK-1664","OBJECT_ID":"2020-070X","EPOCH":"2025-08-05T11:26:26.696832","MEAN_MOTION":15.06399264,"ECCENTRICITY":0.0001483,"INCLINATION":53.0547,"RA_OF_ASC_NODE":37.2454,"ARG_OF_PERICENTER":93.162,"MEAN_ANOMALY":266.9538,"EPHEMERIS_TYPE":0,"CLASSIFICATION_TYPE":"U","NORAD_CAT_ID":46553,"ELEMENT_SET_NO":999,"REV_AT_EPOCH":26733,"BSTAR":0.00012858,"MEAN_MOTION_DOT":1.634e-5,"MEAN_MOTION_DDOT":0},{"OBJECT_NAME":"STARLINK-1676","OBJECT_ID":"2020-070AA","EPOCH":"2025-08-05T07:44:50.425440","MEAN_MOTION":15.06405872,"ECCENTRICITY":0.000131,"INCLINATION":53.055,"RA_OF_ASC_NODE":67.9326,"ARG_OF_PERICENTER":84.1404,"MEAN_ANOMALY":275.9734,"EPHEMERIS_TYPE":0,"CLASSIFICATION_TYPE":"U","NORAD_CAT_ID":46556,"ELEMENT_SET_NO":999,"REV_AT_EPOCH":26689,"BSTAR":0.00023795,"MEAN_MOTION_DOT":3.265e-5,"MEAN_MOTION_DDOT":0},{"OBJECT_NAME":"STARLINK-1679","OBJECT_ID":"2020-070AB","EPOCH":"2025-08-05T13:43:37.703424","MEAN_MOTION":15.06401918,"ECCENTRICITY":0.0001371,"INCLINATION":53.0564,"RA_OF_ASC_NODE":51.1817,"ARG_OF_PERICENTER":92.2288,"MEAN_ANOMALY":267.8858,"EPHEMERIS_TYPE":0,"CLASSIFICATION_TYPE":"U","NORAD_CAT_ID":46557,"ELEMENT_SET_NO":999,"REV_AT_EPOCH":26715,"BSTAR":8.244e-5,"MEAN_MOTION_DOT":9.47e-6,"MEAN_MOTION_DDOT":0},{"OBJECT_NAME":"STARLINK-1680","OBJECT_ID":"2020-070AC","EPOCH":"2025-08-05T13:45:05.740704","MEAN_MOTION":15.06406191,"ECCENTRICITY":0.0001433,"INCLINATION":53.0544,"RA_OF_ASC_NODE":51.8065,"ARG_OF_PERICENTER":92.9541,"MEAN_ANOMALY":267.1612,"EPHEMERIS_TYPE":0,"CLASSIFICATION_TYPE":"U","NORAD_CAT_ID":46558,"ELEMENT_SET_NO":999,"REV_AT_EPOCH":26711,"BSTAR":7.7256e-5,"MEAN_MOTION_DOT":8.7e-6,"MEAN_MOTION_DDOT":0}]
